{
    "links": {
        "self": "http://www.neowsapp.com/rest/v1/neo/54017312?api_key=iIulBulltgU6a56xZRHN4H3l9WmuAYTsLGpBGhQ2"
    },
    "id": "54017312",
    "neo_reference_id": "54017312",
    "name": "(2020 KC7)",
    "designation": "2020 KC7",
    "nasa_jpl_url": "http://ssd.jpl.nasa.gov/sbdb.cgi?sstr=54017312",
    "absolute_magnitude_h": 21.02,
    "estimated_diameter": {
        "kilometers": {
            "estimated_diameter_min": 0.1661709017,
            "estimated_diameter_max": 0.3715694322
        },
        "meters": {
            "estimated_diameter_min": 166.1709017398,
            "estimated_diameter_max": 371.5694321726
        },
        "miles": {
            "estimated_diameter_min": 0.1032537794,
            "estimated_diameter_max": 0.2308824696
        },
        "feet": {
            "estimated_diameter_min": 545.1801412639,
            "estimated_diameter_max": 1219.0598558491
        }
    },
    "is_potentially_hazardous_asteroid": false,
    "close_approach_data": [
        {
            "close_approach_date": "2020-06-16",
            "close_approach_date_full": "2020-Jun-16 03:22",
            "epoch_date_close_approach": 1592277720000,
            "relative_velocity": {
                "kilometers_per_second": "36.1435658259",
                "kilometers_per_hour": "130116.8369732447",
                "miles_per_hour": "80849.5423959586"
            },
            "miss_distance": {
                "astronomical": "0.0807610519",
                "lunar": "31.4160491891",
                "kilometers": "12081681.343199453",
                "miles": "7507208.6727723314"
            },
            "orbiting_body": "Earth"
        }
    ],
    "orbital_data": {
        "orbit_id": "9",
        "orbit_determination_date": "2020-08-22 06:34:21",
        "first_observation_date": "2020-05-28",
        "last_observation_date": "2020-06-14",
        "data_arc_in_days": 17,
        "observations_used": 49,
        "orbit_uncertainty": "8",
        "minimum_orbit_intersection": ".0575567",
        "jupiter_tisserand_invariant": "2.787",
        "epoch_osculation": "2459001.5",
        "eccentricity": ".8016239962908981",
        "semi_major_axis": "2.277882409427604",
        "inclination": "50.52590526717118",
        "ascending_node_longitude": "265.3406477974318",
        "orbital_period": "1255.727421578834",
        "perihelion_distance": ".4518772093015084",
        "perihelion_argument": "109.6150496079927",
        "aphelion_distance": "4.103887609553699",
        "perihelion_time": "2459063.407991737064",
        "mean_anomaly": "342.2518194296326",
        "mean_motion": ".286686420805695",
        "equinox": "J2000",
        "orbit_class": {
            "orbit_class_type": "APO",
            "orbit_class_description": "Near-Earth asteroid orbits which cross the Earth’s orbit similar to that of 1862 Apollo",
            "orbit_class_range": "a (semi-major axis) > 1.0 AU; q (perihelion) < 1.017 AU"
        }
    },
    "is_sentry_object": false
}